GLOBALSTAR M094         
1 39074U 13005C   25175.30322777 -.00000111  00000+0 -41708-4 0  9991
2 39074  51.9930 160.4489 0000313 317.6151  42.4691 12.62262912573278
GLOBALSTAR M096         
1 39075U 13005D   25175.55394056 -.00000079  00000+0  13590-3 0  9997
2 39075  52.0047 208.2072 0000285 229.6086 130.4756 12.62265553572224
GLOBALSTAR M078         
1 39076U 13005E   25175.52751947 -.00000167  00000+0 -35328-3 0  9993
2 39076  51.9884 292.7877 0001180 163.4827 196.6078 12.62257253570841
GLOBALSTAR M095         
1 39077U 13005F   25175.63299479 -.00000090  00000+0  76689-4 0  9993
2 39077  51.9811 289.6590 0000703 164.3987 195.6902 12.62263715571077
GLOBALSTAR M087         
1 52888U 22064A   25175.42614853 -.00000110  00000+0 -34023-4 0  9997
2 52888  52.0004  71.7606 0000557  60.1147 299.9775 12.62263536145955
